ONEWEB-0387             
1 49313U 21090AL  22346.50840797  .00000231  00000+0  53733-3 0  9998
2 49313  87.9178 169.6689 0001745  87.7332 272.4001 13.20776505 60507
ONEWEB-0388             
1 49314U 21090AM  22346.88991320  .00000022  00000+0  23295-4 0  9998
2 49314  87.9235 199.8445 0001487  85.4411 274.6891 13.19722860 57288
ONEWEB-0389             
1 50469U 21132A   22347.01352813  .00000051  00000+0  99101-4 0  9993
2 50469  87.9108 260.5757 0001437  52.0416 308.0846 13.17651122 50524
ONEWEB-0390             
1 50470U 21132B   22347.01508414  .00000088  00000+0  19368-3 0  9991
2 50470  87.9109 260.5769 0001717  57.9268 302.2030 13.17652264 50529
ONEWEB-0391             
1 50471U 21132C   22346.25727086  .00000049  00000+0  93927-4 0  9996
2 50471  87.9107 260.6991 0001580  59.8050 300.3237 13.17645670 49130
ONEWEB-0392             
1 50472U 21132D   22346.30067508  .00000116  00000+0  26646-3 0  9997
2 50472  87.9112 260.7241 0001757  67.0429 293.0888 13.17650008 49178
ONEWEB-0393             
1 50473U 21132E   22346.31935742  .00000065  00000+0  13364-3 0  9999
2 50473  87.9103 260.7142 0002031  66.0579 294.0765 13.18153242 49163
ONEWEB-0394             
1 50474U 21132F   22346.91667824 -.01171305  00000+0 -38594+0 0  9996
2 50474  87.2939 232.6886 0003533 109.8857 244.2830 14.41519894  1300
ONEWEB-0395             
1 50475U 21132G   22346.77024242 -.00000403  00000+0 -11742-2 0  9990
2 50475  87.8850 275.9215 0001816  64.9164 295.2152 13.11416637 47635
ONEWEB-0396             
1 50476U 21132H   22346.91667824 -.01087557  00000+0 -31382+0 0  9991
2 50476  87.3098 232.7183 0001989  72.2922  14.7651 14.47790712  1306
ONEWEB-0397             
1 50477U 21132J   22347.25001157 -.01177331  00000+0 -33783+0 0  9998
2 50477  87.2977 232.7609 0005675 104.0912 100.5849 14.48303102 53645
ONEWEB-0398             
1 50478U 21132K   22346.35622507  .00000173  00000+0  45305-3 0  9990
2 50478  87.8847 275.9933 0002022  60.7905 299.3425 13.11415153 47470
ONEWEB-0399             
1 50479U 21132L   22347.18201776  .00000651  00000+0  18001-2 0  9997
2 50479  87.8851 275.8412 0001598  88.5452 271.5859 13.11418298 48858
ONEWEB-0400             
1 50480U 21132M   22346.91667824 -.01156458  00000+0 -37336+0 0  9998
2 50480  87.3086 232.6419 0004113  82.3768  33.9780 14.42485556  1309
ONEWEB-0401             
1 50481U 21132N   22347.25001157 -.01115320  00000+0 -33249+0 0  9990
2 50481  87.3093 232.6288 0003131 104.6599 255.4558 14.46283573 53659
ONEWEB-0402             
1 50482U 21132P   22346.91667824 -.01120893  00000+0 -32825+0 0  9992
2 50482  87.3034 232.7459 0003760 116.9220 168.7599 14.47165126  1301
ONEWEB-0403             
1 50483U 21132Q   22346.91667824 -.01194546  00000+0 -39433+0 0  9991
2 50483  87.3016 232.6550 0001961 102.3122 178.6379 14.41495883  1300
ONEWEB-0404             
1 50484U 21132R   22346.31691825 -.00000424  00000+0 -12335-2 0  9999
2 50484  87.8847 275.9731 0001072  61.2160 298.9076 13.11415412 47550
ONEWEB-0405             
1 50485U 21132S   22346.20501672  .00000900  00000+0  16094-3 0  9992
2 50485  87.3046 235.9050 0003943  63.2283 296.9334 14.65860401 52221
ONEWEB-0406             
1 50486U 21132T   22346.91667824 -.01160878  00000+0 -34311+0 0  9995
2 50486  87.3088 232.7257 0006253  64.4850  73.2228 14.46821724  1307
ONEWEB-0407             
1 50487U 21132U   22346.91667824 -.01133532  00000+0 -41125+0 0  9994
2 50487  87.3008 232.5516 0005376  55.3319 313.6693 14.36594307  1300
ONEWEB-0409             
1 50488U 21132V   22346.32255072  .00000213  00000+0  56459-3 0  9994
2 50488  87.8858 275.9682 0001456  53.7046 306.4217 13.11420064 47445
ONEWEB-0412             
1 50489U 21132W   22346.91667824 -.01214443  00000+0 -40348+0 0  9993
2 50489  87.2905 232.7034 0004246  90.4557 130.2844 14.41229281  1306
ONEWEB-0413             
1 50490U 21132X   22346.91667824 -.01148860  00000+0 -39132+0 0  9993
2 50490  87.3424 232.4895 0003984 115.9592 199.5206 14.39805054  1302
ONEWEB-0414             
1 50491U 21132Y   22346.91667824 -.01150272  00000+0 -37064+0 0  9996
2 50491  87.3080 232.6566 0006136  71.3934  98.0587 14.42558199  1309
ONEWEB-0417             
1 50492U 21132Z   22346.91667824 -.01102130  00000+0 -32365+0 0  9996
2 50492  87.3051 232.7259 0006755  70.7847 134.5841 14.46968074  1301
ONEWEB-0418             
1 50493U 21132AA  22346.91667824 -.01184475  00000+0 -33656+0 0  9993
2 50493  87.2861 232.9039 0005092  95.9268 245.7773 14.48793262  1303
ONEWEB-0419             
1 50494U 21132AB  22346.91667824 -.00929075  00000+0 -32967+0 0  9990
2 50494  87.3259 232.4847 0006433  59.1316  93.0119 14.37593707  1302
ONEWEB-0420             
1 50495U 21132AC  22346.91667824 -.01042309  00000+0 -38348+0 0  9997
2 50495  87.3664 232.3055 0003625 119.7252 323.3109 14.36154460  1301
ONEWEB-0421             
1 50496U 21132AD  22346.91667824 -.01025263  00000+0 -31498+0 0  9997
2 50496  87.3601 232.3467 0002973 136.3714 138.4599 14.45069851  1300
ONEWEB-0424             
1 50497U 21132AE  22346.91667824 -.01204722  00000+0 -34398+0 0  9999
2 50497  87.2779 232.9772 0004701  93.8783 188.8996 14.48621266  1302
ONEWEB-0426             
1 50498U 21132AF  22346.91667824 -.01116870  00000+0 -35650+0 0  9998
2 50498  87.3327 232.5374 0002062  79.0174  40.6515 14.42939312  1305
ONEWEB-0427             
1 50499U 21132AG  22346.91667824 -.01094563  00000+0 -35839+0 0  9992
2 50499  87.3819 232.3125 0003467  65.7125  99.4308 14.41615735  1303
ONEWEB-0429             
1 50500U 21132AH  22346.91667824 -.01104737  00000+0 -39377+0 0  9991
2 50500  87.3425 232.4513 0004165 104.8853 249.4674 14.37407491  1306
ONEWEB-0430             
1 50501U 21132AJ  22346.91667824 -.01166818  00000+0 -32624+0 0  9998
2 50501  87.2883 232.8971 0005351  66.2593  43.3234 14.49507218  1300
ONEWEB-0432             
1 50502U 21132AK  22346.91667824 -.01109379  00000+0 -39774+0 0  9991
2 50502  87.3435 232.4022 0005168 120.1257  53.2797 14.37124329  1300
ONEWEB-0440             
1 50503U 21132AL  22346.91667824 -.01159405  00000+0 -42140+0 0  9998
2 50503  87.3234 232.5084 0003176 106.7759 242.4033 14.36581251  1306
ONEWEB-0450             
1 50504U 21132AM  22346.91667824 -.01187726  00000+0 -35647+0 0  9990
2 50504  87.2875 232.8432 0003220  80.2130 326.9328 14.46159015  1301
ONEWEB-0410             
1 51622U 22012A   22346.91667824  .00000013  00000+0  00000+0 0  9995
2 51622  87.9226 260.6019 0002128 113.7712  78.2914 13.20918835  1306
ONEWEB-0411             
1 51623U 22012B   22346.36063863 -.00000019  00000+0 -90310-4 0  9994
2 51623  87.8762 291.2505 0001757  57.5799 302.5498 13.10380627 41280
ONEWEB-0415             
1 51624U 22012C   22347.12110427 -.00000512  00000+0 -15017-2 0  9996
2 51624  87.8753 291.0780 0002230  65.3459 294.7900 13.10373358 42667
ONEWEB-0416             
1 51625U 22012D   22347.13203840  .00000271  00000+0  74016-3 0  9995
2 51625  87.8748 291.0571 0002008  79.6453 280.4900 13.10375297 42717
ONEWEB-0422             
1 51626U 22012E   22346.33657026  .00000056  00000+0  89187-4 0  9993
2 51626  87.9584 260.7683 0000898 116.2866 243.8365 13.31275008 44863
ONEWEB-0423             
1 51627U 22012F   22347.25001157  .00000013  00000+0  00000+0 0  9999
2 51627  87.9112 260.5436 0001873  40.6387 292.0419 13.19314539 46167
ONEWEB-0425             
1 51628U 22012G   22346.37781208  .00000671  00000+0  18861-2 0  9991
2 51628  87.8736 291.2102 0001349  93.5699 266.5583 13.10374632 41323
ONEWEB-0428             
1 51629U 22012H   22347.12266487 -.00000205  00000+0 -62254-3 0  9994
2 51629  87.8733 291.0529 0002278  88.5739 271.5649 13.10377740 42663
ONEWEB-0431             
1 51630U 22012J   22346.38715801  .00000748  00000+0  21073-2 0  9995
2 51630  87.8783 291.2112 0002677  72.1539 287.9880 13.10371022 41349
ONEWEB-0434             
1 51631U 22012K   22346.38093775  .00000655  00000+0  18388-2 0  9997
2 51631  87.8804 291.1996 0002258  86.4659 273.6726 13.10375162 41327
ONEWEB-0435             
1 51632U 22012L   22346.84843165  .00000529  00000+0  14802-2 0  9992
2 51632  87.8796 291.1057 0002487  91.2979 268.8434 13.10374525 41378
ONEWEB-0436             
1 51633U 22012M   22346.83334491  .00015433  00000+0  39688-1 0  9997
2 51633  87.9143 260.6131 0001802  81.1058  92.6245 13.17583114  1301
ONEWEB-0438             
1 51634U 22012N   22346.37312903  .00000642  00000+0  18018-2 0  9992
2 51634  87.8800 291.1998 0001589  81.8744 278.2563 13.10376102 41345
ONEWEB-0439             
1 51635U 22012P   22347.13982652  .00000694  00000+0  19502-2 0  9998
2 51635  87.8779 291.0658 0001894  78.3988 281.7352 13.10375144 42704
ONEWEB-0442             
1 51636U 22012Q   22347.01952848  .00013288  00000+0  34119-1 0  9993
2 51636  87.9131 260.5966 0001649  56.0361 304.0927 13.17693266 46118
ONEWEB-0443             
1 51637U 22012R   22346.91667824 -.00046037  00000+0 -11925+0 0  9997
2 51637  87.9143 260.5856 0001734 104.1024  73.5046 13.17622201  1309
ONEWEB-0444             
1 51638U 22012S   22347.13048695  .00000269  00000+0  73437-3 0  9997
2 51638  87.8830 291.0558 0002327  97.5110 262.6282 13.10362328 42728
ONEWEB-0445             
1 51639U 22012T   22346.38872105  .00000661  00000+0  18586-2 0  9994
2 51639  87.8780 291.2301 0001585  59.7487 300.3797 13.10371656 41345
ONEWEB-0446             
1 51640U 22012U   22347.12889547 -.00000166  00000+0 -51093-3 0  9990
2 51640  87.8758 291.0734 0002023  70.0829 290.0516 13.10374758 42727
ONEWEB-0448             
1 51641U 22012V   22346.37002144  .00000526  00000+0  14706-2 0  9994
2 51641  87.8752 291.2191 0002029  82.1877 277.9480 13.10377532 41292
ONEWEB-0449             
1 51642U 22012W   22346.37468532  .00000693  00000+0  19486-2 0  9997
2 51642  87.8803 291.1999 0001500  77.7813 282.3483 13.10379681 41300
